NORAD_CAT_ID,OBJECT_NAME,OBJECT_TYPE,EPOCH,MEAN_MOTION,ECCENTRICITY,INCLINATION,RA_OF_ASC_NODE,ARG_OF_PERICENTER,MEAN_ANOMALY,BSTAR,MEAN_MOTION_DOT,MEAN_MOTION_DDOT,TLE_LINE0,TLE_LINE1,TLE_LINE2,SEMIMAJOR_AXIS,PERIOD,APOGEE,PERIGEE,DECAYED
49424.0,STARLINK-3135,PAYLOAD,2023-01-13 05:43:41,15.08851729,0.0001673,53.2164,358.1941,73.5024,286.6151,0.00052826,8.132e-05,0.0,0 STARLINK-3135,1 49424U 21104S   23013.23868045  .00008132  00000-0  52826-3 0  9996,2 49424  53.2164 358.1941 0001673  73.5024 286.6151 15.08851729 64796,6917.845,95.437,540.867,538.552,0.0
49424.0,STARLINK-3135,PAYLOAD,2023-01-13 15:16:00,15.08844592,0.0001607,53.2158,356.4089,70.7831,289.3335,0.00022463,3.289e-05,0.0,0 STARLINK-3135,1 49424U 21104S   23013.63612124  .00003289  00000-0  22463-3 0  9997,2 49424  53.2158 356.4089 0001607  70.7831 289.3335 15.08844592 64856,6917.866,95.437,540.8430000000001,538.62,0.0
49424.0,STARLINK-3135,PAYLOAD,2023-01-14 05:34:28,15.08858535,0.0001505,53.2159,353.7345,80.2031,279.9131,0.00051331,7.895e-05,0.0,0 STARLINK-3135,1 49424U 21104S   23014.23227542  .00007895  00000-0  51331-3 0  9993,2 49424  53.2159 353.7345 0001505  80.2031 279.9131 15.08858535 66029,6917.8240000000005,95.436,540.73,538.648,0.0
49424.0,STARLINK-3135,PAYLOAD,2023-01-14 21:28:20,15.08847287,0.0002153,53.2154,350.7571,80.3661,279.7575,0.0004673,7.158e-05,0.0,0 STARLINK-3135,1 49424U 21104S   23014.89468024  .00007158  00000-0  46730-3 0  9996,2 49424  53.2154 350.7571 0002153  80.3661 279.7575 15.08847287 66125,6917.858,95.437,541.2130000000001,538.234,0.0
49424.0,STARLINK-3135,PAYLOAD,2023-01-15 07:00:39,15.08844269,0.0001742,53.2159,348.9748,77.3877,282.7309,0.0003876,5.887e-05,0.0,0 STARLINK-3135,1 49424U 21104S   23015.29212018  .00005887  00000-0  38760-3 0  9992,2 49424  53.2159 348.9748 0001742  77.3877 282.7309 15.08844269 66185,6917.866999999999,95.437,540.937,538.5269999999999,0.0
49424.0,STARLINK-3135,PAYLOAD,2023-01-15 14:57:34,15.08840769,0.0001774999999999,53.2157,347.4882,77.1487,282.9704,0.00040258,6.125e-05,0.0,0 STARLINK-3135,1 49424U 21104S   23015.62332146  .00006125  00000-0  40258-3 0  9995,2 49424  53.2157 347.4882 0001775  77.1487 282.9704 15.08840769 65155,6917.878000000001,95.438,540.971,538.515,0.0
49424.0,STARLINK-3135,PAYLOAD,2023-01-16 05:16:02,15.08877419,0.0001365999999999,53.215,344.8125,71.7205,288.3936,0.0013619,0.00021475,0.0,0 STARLINK-3135,1 49424U 21104S   23016.21947063  .00021475  00000-0  13619-2 0  9996,2 49424  53.2150 344.8125 0001366  71.7205 288.3936 15.08877419 66322,6917.766,95.435,540.576,538.686,0.0
49424.0,STARLINK-3135,PAYLOAD,2023-01-16 14:48:20,15.08855658,0.0001284,53.215,343.0275,96.3917,263.7221,0.00027496,4.093e-05,0.0,0 STARLINK-3135,1 49424U 21104S   23016.61690937  .00004093  00000-0  27496-3 0  9991,2 49424  53.2150 343.0275 0001284  96.3917 263.7221 15.08855658 66382,6917.8330000000005,95.437,540.586,538.809,0.0
49424.0,STARLINK-3135,PAYLOAD,2023-01-17 14:39:09,15.08817882,0.0001813,53.2147,338.5657,96.3873,263.7326,0.00023277,3.416e-05,0.0,0 STARLINK-3135,1 49424U 21104S   23017.61052777  .00003416  00000-0  23277-3 0  9997,2 49424  53.2147 338.5657 0001813  96.3873 263.7326 15.08817882 66530,6917.948,95.439,541.067,538.559,0.0
49424.0,STARLINK-3135,PAYLOAD,2023-01-18 06:33:01,15.08839846,0.0001673,53.2156,335.5893,106.4635,253.6541,0.0010661,0.0001672,0.0,0 STARLINK-3135,1 49424U 21104S   23018.27293259  .00016720  00000-0  10661-2 0  9996,2 49424  53.2156 335.5893 0001673 106.4635 253.6541 15.08839846 65554,6917.880999999999,95.438,540.903,538.5880000000001,0.0
49424.0,STARLINK-3135,PAYLOAD,2023-01-18 14:29:57,15.0884508,0.000167,53.2154,334.1042,100.6614,259.4567,0.0010918,0.00017133,0.0,0 STARLINK-3135,1 49424U 21104S   23018.60413429  .00017133  00000-0  10918-2 0  9990,2 49424  53.2154 334.1042 0001670 100.6614 259.4567 15.08845080 66687,6917.865,95.437,540.885,538.575,0.0
49424.0,STARLINK-3135,PAYLOAD,2023-01-19 03:13:01,15.08877323,0.0001395,53.2143,331.7251,101.431,258.6839,0.0015748,0.00024889,0.0,0 STARLINK-3135,1 49424U 21104S   23019.13404422  .00024889  00000-0  15748-2 0  9994,2 49424  53.2143 331.7251 0001395 101.4310 258.6839 15.08877323 66763,6917.766,95.435,540.596,538.6659999999999,0.0
49424.0,STARLINK-3135,PAYLOAD,2023-01-19 06:23:47,15.08885072,0.0001446,53.2155,331.1299,101.6806,258.4349,0.0016118999999999,0.0002549,0.0,0 STARLINK-3135,1 49424U 21104S   23019.26652000  .00025490  00000-0  16119-2 0  9997,2 49424  53.2155 331.1299 0001446 101.6806 258.4349 15.08885072 65708,6917.743,95.435,540.6080000000001,538.607,0.0
49424.0,STARLINK-3135,PAYLOAD,2023-01-20 03:03:48,15.08859206,0.000279,53.2139,327.2651,86.7036,273.4276,0.0014582,0.00023008,0.0,0 STARLINK-3135,1 49424U 21104S   23020.12764471  .00023008  00000-0  14582-2 0  9995,2 49424  53.2139 327.2651 0002790  86.7036 273.4276 15.08859206 66919,6917.821999999999,95.436,541.617,537.757,0.0
49424.0,STARLINK-3135,PAYLOAD,2023-01-20 06:14:34,15.08847643,0.0001742,53.216,326.6724,74.51,285.6084,0.00092946,0.00014538,0.0,0 STARLINK-3135,1 49424U 21104S   23020.26012446  .00014538  00000-0  92946-3 0  9997,2 49424  53.2160 326.6724 0001742  74.5100 285.6084 15.08847643 66936,6917.857,95.437,540.927,538.5169999999999,0.0
49424.0,STARLINK-3135,PAYLOAD,2023-01-20 20:33:03,15.08836794,0.0002384,53.2156,323.9937,81.311,278.8152,0.0010031,0.00015711,0.0,0 STARLINK-3135,1 49424U 21104S   23020.85629133  .00015711  00000-0  10031-2 0  9997,2 49424  53.2156 323.9937 0002384  81.3110 278.8152 15.08836794 67023,6917.89,95.438,541.404,538.106,0.0
49424.0,STARLINK-3135,PAYLOAD,2023-01-21 12:26:55,15.08839039,0.0001720999999999,53.216,321.0201,86.3307,273.7881,0.0012792,0.00020129,0.0,0 STARLINK-3135,1 49424U 21104S   23021.51869355  .00020129  00000-0  12792-2 0  9998,2 49424  53.2160 321.0201 0001721  86.3307 273.7881 15.08839039 67127,6917.883000000001,95.438,540.939,538.558,0.0
49424.0,STARLINK-3135,PAYLOAD,2023-01-22 12:17:41,15.08851359,0.0001029,53.2161,316.56,75.7157,284.3949,0.00051008,7.842e-05,0.0,0 STARLINK-3135,1 49424U 21104S   23022.51228772  .00007842  00000-0  51008-3 0  9992,2 49424  53.2161 316.5600 0001029  75.7157 284.3949 15.08851359 67274,6917.846,95.437,540.423,538.999,0.0
49424.0,STARLINK-3135,PAYLOAD,2023-01-23 12:08:28,15.08840547,8.859999999999999e-05,53.216,312.1001,83.9684,276.1409,-3.8138e-05,-8.95e-06,0.0,0 STARLINK-3135,1 49424U 21104S   23023.50588882 -.00000895  00000-0 -38138-4 0  9996,2 49424  53.2160 312.1001 0000886  83.9684 276.1409 15.08840547 67420,6917.879,95.438,540.357,539.131,0.0
49424.0,STARLINK-3135,PAYLOAD,2023-01-24 04:02:20,15.08848466,0.0001020999999999,53.2155,309.1264,85.5631,274.5478,0.00021986,3.214e-05,0.0,0 STARLINK-3135,1 49424U 21104S   23024.16828790  .00003214  00000-0  21986-3 0  9992,2 49424  53.2155 309.1264 0001021  85.5631 274.5478 15.08848466 67520,6917.855,95.437,540.4259999999999,539.013,0.0
49424.0,STARLINK-3135,PAYLOAD,2023-01-25 03:53:07,15.08843273,0.0001246,53.2143,304.6657,80.5804,279.5328,0.00019839,2.871e-05,0.0,0 STARLINK-3135,1 49424U 21104S   23025.16189558  .00002871  00000-0  19839-3 0  9997,2 49424  53.2143 304.6657 0001246  80.5804 279.5328 15.08843273 67675,6917.87,95.437,540.597,538.873,0.0
49424.0,STARLINK-3135,PAYLOAD,2023-01-25 11:50:03,15.08837517,0.0001422,53.2146,303.1798,70.8663,289.2483,0.00014064,1.951e-05,0.0,0 STARLINK-3135,1 49424U 21104S   23025.49310040  .00001951  00000-0  14064-3 0  9998,2 49424  53.2146 303.1798 0001422  70.8663 289.2483 15.08837517 67729,6917.888000000001,95.438,540.737,538.769,0.0
49424.0,STARLINK-3135,PAYLOAD,2023-01-26 00:33:09,15.08839255,0.0001155999999999,53.2151,300.7983,80.9975,279.1147,0.00024054,3.542e-05,0.0,0 STARLINK-3135,1 49424U 21104S   23026.02302100  .00003542  00000-0  24054-3 0  9994,2 49424  53.2151 300.7983 0001156  80.9975 279.1147 15.08839255 66721,6917.883000000001,95.438,540.547,538.948,0.0
49424.0,STARLINK-3135,PAYLOAD,2023-01-27 00:23:55,15.08850112,0.000112,53.2151,296.3375,87.89200000000001,272.2201,0.00027514,4.095e-05,0.0,0 STARLINK-3135,1 49424U 21104S   23027.01661704  .00004095  00000-0  27514-3 0  9990,2 49424  53.2151 296.3375 0001120  87.8920 272.2201 15.08850112 67959,6917.849,95.437,540.489,538.94,0.0
49424.0,STARLINK-3135,PAYLOAD,2023-01-27 13:07:01,15.08835866,9.17e-05,53.2143,293.9594,98.1784,261.9312,8.2461e-06,-1.56e-06,0.0,0 STARLINK-3135,1 49424U 21104S   23027.54654125 -.00000156  00000-0  82461-5 0  9996,2 49424  53.2143 293.9594 0000917  98.1784 261.9312 15.08835866 68039,6917.893,95.438,540.3919999999999,539.124,0.0
49424.0,STARLINK-3135,PAYLOAD,2023-01-27 21:03:56,15.08838288,0.0001010999999999,53.2139,292.4734,91.6831,268.4277,5.3146e-05,5.58e-06,0.0,0 STARLINK-3135,1 49424U 21104S   23027.87774157  .00000558  00000-0  53146-4 0  9992,2 49424  53.2139 292.4734 0001011  91.6831 268.4277 15.08838288 67000,6917.886,95.438,540.45,539.0509999999999,0.0
49424.0,STARLINK-3135,PAYLOAD,2023-01-28 03:25:29,15.08849576,0.0001039,53.2136,291.2844,80.0573,280.0536,0.00029709,4.445e-05,0.0,0 STARLINK-3135,1 49424U 21104S   23028.14269787  .00004445  00000-0  29709-3 0  9997,2 49424  53.2136 291.2844 0001039  80.0573 280.0536 15.08849576 68125,6917.851,95.437,540.435,538.997,0.0
49424.0,STARLINK-3135,PAYLOAD,2023-01-28 12:57:48,15.08837136,9.91e-05,53.2136,289.5007,83.2053,276.9052,0.00010168,1.331e-05,0.0,0 STARLINK-3135,1 49424U 21104S   23028.54014160  .00001331  00000-0  10168-3 0  9994,2 49424  53.2136 289.5007 0000991  83.2053 276.9052 15.08837136 68182,6917.889,95.438,540.44,539.069,0.0
49424.0,STARLINK-3135,PAYLOAD,2023-01-28 20:54:43,15.08842027,9.9e-05,53.2141,288.0133,102.2748,257.8355,0.00011074,1.475e-05,0.0,0 STARLINK-3135,1 49424U 21104S   23028.87133964  .00001475  00000-0  11074-3 0  9990,2 49424  53.2141 288.0133 0000990 102.2748 257.8355 15.08842027 67159,6917.874,95.437,540.424,539.054,0.0
